STARLINK-35633          
1 66162U 25240S   26052.51630518  .00028662  00000+0  97652-3 0  9993
2 66162  53.1575 137.8240 0001244  78.3139 281.8001 15.30186029 19517
STARLINK-35607          
1 66163U 25240T   26052.51102786  .00030743  00000+0  10457-2 0  9995
2 66163  53.1584 137.7925 0001198  57.4099 302.7018 15.30203572 19512
STARLINK-35614          
1 66164U 25240U   26052.48581397  .00022305  00000+0  76301-3 0  9997
2 66164  53.1604 138.3476 0001175  86.0998 274.0137 15.30196888 19508
STARLINK-35575          
1 66165U 25240V   26052.60905643  .00029027  00000+0  98786-3 0  9995
2 66165  53.1587 137.6979 0001136  81.2750 278.8379 15.30216121 19524
STARLINK-35624          
1 66166U 25240W   26052.49519795  .00026859  00000+0  91585-3 0  9992
2 66166  53.1596 137.6910 0001122  77.0082 283.1044 15.30194312 19510
STARLINK-35641          
1 66167U 25240X   26052.50469112  .00019929  00000+0  68273-3 0  9990
2 66167  53.1595 137.7482 0001350 146.8316 213.2770 15.30221733 19511
STARLINK-35578          
1 66168U 25240Y   26052.52157687  .00003310  00000+0  12378-3 0  9996
2 66168  53.1575 137.8556 0001756 102.1399 257.9798 15.30213682 19518
STARLINK-35638          
1 66169U 25240Z   26052.47209615  .00026331  00000+0  89787-3 0  9996
2 66169  53.1577 138.2620 0000898  72.7377 287.3722 15.30204821 19500
STARLINK-35585          
1 66170U 25240AA  26052.61855468  .00022311  00000+0  76322-3 0  9992
2 66170  53.1606 137.7527 0001442  82.1536 277.9628 15.30196295 19520
STARLINK-35606          
1 66171U 25240AB  26052.51208135  .00030156  00000+0  10260-2 0  9999
2 66171  53.1580 137.7961 0001127  70.1106 290.0017 15.30203019 19514
STARLINK-35627          
1 66172U 25240AC  26052.52791303  .00021821  00000+0  74688-3 0  9999
2 66172  53.1581 137.9024 0001320  71.9315 288.1830 15.30191713 19512
STARLINK-35634          
1 66173U 25240AD  26052.50997187  .00030131  00000+0  10251-2 0  9995
2 66173  53.1581 137.7828 0001363  55.4132 304.6997 15.30206331 19515
STARLINK-35363          
1 66178U 25243B   26052.10870129  .00021500  00000+0  73569-3 0  9997
2 66178  53.1580 322.3760 0001098  98.6040 261.5085 15.30209974 18118
STARLINK-35346          
1 66179U 25243C   26051.98123752  .00024329  00000+0  83060-3 0  9995
2 66179  53.1585 323.0012 0001204  80.0931 280.0205 15.30209449 18099
STARLINK-35335          
1 66180U 25243D   26052.57223316  .00033503  00000+0  11374-2 0  9992
2 66180  53.1571 320.2949 0001374  98.7594 261.3562 15.30222991 18188
STARLINK-35342          
1 66181U 25243E   26052.11714083  .00029995  00000+0  10201-2 0  9997
2 66181  53.1577 322.4316 0000966 122.1215 237.9880 15.30220401 18114
