[{"OBJECT_NAME":"STARLINK-35633","OBJECT_ID":"2025-240S","EPOCH":"2026-02-21T12:23:28.767552","MEAN_MOTION":15.30186029,"ECCENTRICITY":0.00012442,"INCLINATION":53.1575,"RA_OF_ASC_NODE":137.824,"ARG_OF_PERICENTER":78.3139,"MEAN_ANOMALY":281.8001,"EPHEMERIS_TYPE":0,"CLASSIFICATION_TYPE":"U","NORAD_CAT_ID":66162,"ELEMENT_SET_NO":999,"REV_AT_EPOCH":1951,"BSTAR":0.00097652419,"MEAN_MOTION_DOT":0.00028662,"MEAN_MOTION_DDOT":0},{"OBJECT_NAME":"STARLINK-35607","OBJECT_ID":"2025-240T","EPOCH":"2026-02-21T12:15:52.807104","MEAN_MOTION":15.30203572,"ECCENTRICITY":0.00011986,"INCLINATION":53.1584,"RA_OF_ASC_NODE":137.7925,"ARG_OF_PERICENTER":57.4099,"MEAN_ANOMALY":302.7018,"EPHEMERIS_TYPE":0,"CLASSIFICATION_TYPE":"U","NORAD_CAT_ID":66163,"ELEMENT_SET_NO":999,"REV_AT_EPOCH":1951,"BSTAR":0.0010456818,"MEAN_MOTION_DOT":0.00030743,"MEAN_MOTION_DDOT":0},{"OBJECT_NAME":"STARLINK-35614","OBJECT_ID":"2025-240U","EPOCH":"2026-02-21T11:39:34.327008","MEAN_MOTION":15.30196888,"ECCENTRICITY":0.00011752,"INCLINATION":53.1604,"RA_OF_ASC_NODE":138.3476,"ARG_OF_PERICENTER":86.0998,"MEAN_ANOMALY":274.0137,"EPHEMERIS_TYPE":0,"CLASSIFICATION_TYPE":"U","NORAD_CAT_ID":66164,"ELEMENT_SET_NO":999,"REV_AT_EPOCH":1950,"BSTAR":0.00076301075,"MEAN_MOTION_DOT":0.00022305,"MEAN_MOTION_DDOT":0},{"OBJECT_NAME":"STARLINK-35575","OBJECT_ID":"2025-240V","EPOCH":"2026-02-21T14:37:02.475552","MEAN_MOTION":15.30216121,"ECCENTRICITY":0.00011368,"INCLINATION":53.1587,"RA_OF_ASC_NODE":137.6979,"ARG_OF_PERICENTER":81.275,"MEAN_ANOMALY":278.8379,"EPHEMERIS_TYPE":0,"CLASSIFICATION_TYPE":"U","NORAD_CAT_ID":66165,"ELEMENT_SET_NO":999,"REV_AT_EPOCH":1952,"BSTAR":0.00098785645,"MEAN_MOTION_DOT":0.00029027,"MEAN_MOTION_DDOT":0},{"OBJECT_NAME":"STARLINK-35624","OBJECT_ID":"2025-240W","EPOCH":"2026-02-21T11:53:05.102880","MEAN_MOTION":15.30194312,"ECCENTRICITY":0.00011226,"INCLINATION":53.1596,"RA_OF_ASC_NODE":137.691,"ARG_OF_PERICENTER":77.0082,"MEAN_ANOMALY":283.1044,"EPHEMERIS_TYPE":0,"CLASSIFICATION_TYPE":"U","NORAD_CAT_ID":66166,"ELEMENT_SET_NO":999,"REV_AT_EPOCH":1951,"BSTAR":0.00091585434,"MEAN_MOTION_DOT":0.00026859,"MEAN_MOTION_DDOT":0},{"OBJECT_NAME":"STARLINK-35641","OBJECT_ID":"2025-240X","EPOCH":"2026-02-21T12:06:45.312768","MEAN_MOTION":15.30221733,"ECCENTRICITY":0.00013508,"INCLINATION":53.1595,"RA_OF_ASC_NODE":137.7482,"ARG_OF_PERICENTER":146.8316,"MEAN_ANOMALY":213.277,"EPHEMERIS_TYPE":0,"CLASSIFICATION_TYPE":"U","NORAD_CAT_ID":66167,"ELEMENT_SET_NO":999,"REV_AT_EPOCH":1951,"BSTAR":0.00068273262,"MEAN_MOTION_DOT":0.00019929,"MEAN_MOTION_DDOT":0},{"OBJECT_NAME":"STARLINK-35578","OBJECT_ID":"2025-240Y","EPOCH":"2026-02-21T12:31:04.241568","MEAN_MOTION":15.30213682,"ECCENTRICITY":0.00017563,"INCLINATION":53.1575,"RA_OF_ASC_NODE":137.8556,"ARG_OF_PERICENTER":102.1399,"MEAN_ANOMALY":257.9798,"EPHEMERIS_TYPE":0,"CLASSIFICATION_TYPE":"U","NORAD_CAT_ID":66168,"ELEMENT_SET_NO":999,"REV_AT_EPOCH":1951,"BSTAR":0.00012378385,"MEAN_MOTION_DOT":3.31e-5,"MEAN_MOTION_DDOT":0},{"OBJECT_NAME":"STARLINK-35638","OBJECT_ID":"2025-240Z","EPOCH":"2026-02-21T11:19:49.107360","MEAN_MOTION":15.30204821,"ECCENTRICITY":8.989e-5,"INCLINATION":53.1577,"RA_OF_ASC_NODE":138.262,"ARG_OF_PERICENTER":72.7377,"MEAN_ANOMALY":287.3722,"EPHEMERIS_TYPE":0,"CLASSIFICATION_TYPE":"U","NORAD_CAT_ID":66169,"ELEMENT_SET_NO":999,"REV_AT_EPOCH":1950,"BSTAR":0.00089786925,"MEAN_MOTION_DOT":0.00026331,"MEAN_MOTION_DDOT":0},{"OBJECT_NAME":"STARLINK-35585","OBJECT_ID":"2025-240AA","EPOCH":"2026-02-21T14:50:43.124352","MEAN_MOTION":15.30196295,"ECCENTRICITY":0.00014421,"INCLINATION":53.1606,"RA_OF_ASC_NODE":137.7527,"ARG_OF_PERICENTER":82.1536,"MEAN_ANOMALY":277.9628,"EPHEMERIS_TYPE":0,"CLASSIFICATION_TYPE":"U","NORAD_CAT_ID":66170,"ELEMENT_SET_NO":999,"REV_AT_EPOCH":1952,"BSTAR":0.00076322494,"MEAN_MOTION_DOT":0.00022311,"MEAN_MOTION_DDOT":0},{"OBJECT_NAME":"STARLINK-35606","OBJECT_ID":"2025-240AB","EPOCH":"2026-02-21T12:17:23.828640","MEAN_MOTION":15.30203019,"ECCENTRICITY":0.00011275,"INCLINATION":53.158,"RA_OF_ASC_NODE":137.7961,"ARG_OF_PERICENTER":70.1106,"MEAN_ANOMALY":290.0017,"EPHEMERIS_TYPE":0,"CLASSIFICATION_TYPE":"U","NORAD_CAT_ID":66171,"ELEMENT_SET_NO":999,"REV_AT_EPOCH":1951,"BSTAR":0.0010260498,"MEAN_MOTION_DOT":0.00030156,"MEAN_MOTION_DDOT":0},{"OBJECT_NAME":"STARLINK-35627","OBJECT_ID":"2025-240AC","EPOCH":"2026-02-21T12:40:11.685792","MEAN_MOTION":15.30191713,"ECCENTRICITY":0.000132,"INCLINATION":53.1581,"RA_OF_ASC_NODE":137.9024,"ARG_OF_PERICENTER":71.9315,"MEAN_ANOMALY":288.183,"EPHEMERIS_TYPE":0,"CLASSIFICATION_TYPE":"U","NORAD_CAT_ID":66172,"ELEMENT_SET_NO":999,"REV_AT_EPOCH":1951,"BSTAR":0.00074687918,"MEAN_MOTION_DOT":0.00021821,"MEAN_MOTION_DDOT":0},{"OBJECT_NAME":"STARLINK-35634","OBJECT_ID":"2025-240AD","EPOCH":"2026-02-21T12:14:21.569568","MEAN_MOTION":15.30206331,"ECCENTRICITY":0.00013638,"INCLINATION":53.1581,"RA_OF_ASC_NODE":137.7828,"ARG_OF_PERICENTER":55.4132,"MEAN_ANOMALY":304.6997,"EPHEMERIS_TYPE":0,"CLASSIFICATION_TYPE":"U","NORAD_CAT_ID":66173,"ELEMENT_SET_NO":999,"REV_AT_EPOCH":1951,"BSTAR":0.0010251139,"MEAN_MOTION_DOT":0.00030131,"MEAN_MOTION_DDOT":0},{"OBJECT_NAME":"STARLINK-35363","OBJECT_ID":"2025-243B","EPOCH":"2026-02-21T02:36:31.791456","MEAN_MOTION":15.30209974,"ECCENTRICITY":0.00010987,"INCLINATION":53.158,"RA_OF_ASC_NODE":322.376,"ARG_OF_PERICENTER":98.604,"MEAN_ANOMALY":261.5085,"EPHEMERIS_TYPE":0,"CLASSIFICATION_TYPE":"U","NORAD_CAT_ID":66178,"ELEMENT_SET_NO":999,"REV_AT_EPOCH":1811,"BSTAR":0.00073568796,"MEAN_MOTION_DOT":0.000215,"MEAN_MOTION_DDOT":0},{"OBJECT_NAME":"STARLINK-35346","OBJECT_ID":"2025-243C","EPOCH":"2026-02-20T23:32:58.921728","MEAN_MOTION":15.30209449,"ECCENTRICITY":0.00012048,"INCLINATION":53.1585,"RA_OF_ASC_NODE":323.0012,"ARG_OF_PERICENTER":80.0931,"MEAN_ANOMALY":280.0205,"EPHEMERIS_TYPE":0,"CLASSIFICATION_TYPE":"U","NORAD_CAT_ID":66179,"ELEMENT_SET_NO":999,"REV_AT_EPOCH":1809,"BSTAR":0.00083060268,"MEAN_MOTION_DOT":0.00024329,"MEAN_MOTION_DDOT":0},{"OBJECT_NAME":"STARLINK-35335","OBJECT_ID":"2025-243D","EPOCH":"2026-02-21T13:44:00.945024","MEAN_MOTION":15.30222991,"ECCENTRICITY":0.0001374,"INCLINATION":53.1571,"RA_OF_ASC_NODE":320.2949,"ARG_OF_PERICENTER":98.7594,"MEAN_ANOMALY":261.3562,"EPHEMERIS_TYPE":0,"CLASSIFICATION_TYPE":"U","NORAD_CAT_ID":66180,"ELEMENT_SET_NO":999,"REV_AT_EPOCH":1818,"BSTAR":0.0011373935,"MEAN_MOTION_DOT":0.00033503,"MEAN_MOTION_DDOT":0},{"OBJECT_NAME":"STARLINK-35342","OBJECT_ID":"2025-243E","EPOCH":"2026-02-21T02:48:40.967712","MEAN_MOTION":15.30220401,"ECCENTRICITY":9.661e-5,"INCLINATION":53.1577,"RA_OF_ASC_NODE":322.4316,"ARG_OF_PERICENTER":122.1215,"MEAN_ANOMALY":237.988,"EPHEMERIS_TYPE":0,"CLASSIFICATION_TYPE":"U","NORAD_CAT_ID":66181,"ELEMENT_SET_NO":999,"REV_AT_EPOCH":1811,"BSTAR":0.0010201064,"MEAN_MOTION_DOT":0.00029995,"MEAN_MOTION_DDOT":0}]
